{
  "type": "FeatureCollection",
  "features": [
    {
      "type": "Feature",
      "properties": {
        "norad_id": 41860,
        "name": "GSAT0212 (GALILEO 16)",
        "group": "galileo",
        "lat": -27.177661564018187,
        "lon": 85.41744060755144,
        "alt_km": 23222.56553275199,
        "timestamp": "2025-12-14T22:38:41.021026+00:00",
        "meta_object_name": "GSAT0212 (GALILEO 16)",
        "meta_object_id": "2016-069B",
        "meta_epoch": "2025-12-11T11:29:42.448992",
        "meta_mean_motion": 1.70474595,
        "meta_eccentricity": 0.00021636,
        "meta_inclination": 55.3791,
        "meta_ra_of_asc_node": 106.2805,
        "meta_arg_of_pericenter": 27.6057,
        "meta_mean_anomaly": 332.3763,
        "meta_ephemeris_type": 0,
        "meta_classification_type": "U",
        "meta_norad_cat_id": 41860,
        "meta_element_set_no": 999,
        "meta_rev_at_epoch": 5645,
        "meta_bstar": 0,
        "meta_mean_motion_dot": 8e-08,
        "meta_mean_motion_ddot": 0,
        "tle_line1": "1 41860U 16069B   25345.47896353  .00000008  00000+0  00000+0 0  9991",
        "tle_line2": "2 41860  55.3791 106.2805 0002163  27.6057 332.3763  1.70474595 56451"
      },
      "geometry": {
        "type": "Point",
        "coordinates": [
          85.41744060755144,
          -27.177661564018187
        ]
      }
    },
    {
      "type": "Feature",
      "properties": {
        "norad_id": 41861,
        "name": "GSAT0213 (GALILEO 17)",
        "group": "galileo",
        "lat": 53.96588743127023,
        "lon": -145.38202292257563,
        "alt_km": 23222.97312064809,
        "timestamp": "2025-12-14T22:38:41.021037+00:00",
        "meta_object_name": "GSAT0213 (GALILEO 17)",
        "meta_object_id": "2016-069C",
        "meta_epoch": "2025-12-14T04:37:41.330208",
        "meta_mean_motion": 1.70474935,
        "meta_eccentricity": 0.00024236,
        "meta_inclination": 55.3829,
        "meta_ra_of_asc_node": 106.2129,
        "meta_arg_of_pericenter": 283.222,
        "meta_mean_anomaly": 76.7169,
        "meta_ephemeris_type": 0,
        "meta_classification_type": "U",
        "meta_norad_cat_id": 41861,
        "meta_element_set_no": 999,
        "meta_rev_at_epoch": 5636,
        "meta_bstar": 0,
        "meta_mean_motion_dot": -4e-08,
        "meta_mean_motion_ddot": 0,
        "tle_line1": "1 41861U 16069C   25348.19283947 -.00000004  00000+0  00000+0 0  9990",
        "tle_line2": "2 41861  55.3829 106.2129 0002423 283.2220  76.7169  1.70474935 56361"
      },
      "geometry": {
        "type": "Point",
        "coordinates": [
          -145.38202292257563,
          53.96588743127023
        ]
      }
    },
    {
      "type": "Feature",
      "properties": {
        "norad_id": 41862,
        "name": "GSAT0214 (GALILEO 18)",
        "group": "galileo",
        "lat": 9.129151782313581,
        "lon": 112.53923112923147,
        "alt_km": 23220.506979678208,
        "timestamp": "2025-12-14T22:38:41.021049+00:00",
        "meta_object_name": "GSAT0214 (GALILEO 18)",
        "meta_object_id": "2016-069D",
        "meta_epoch": "2025-12-12T13:53:54.735936",
        "meta_mean_motion": 1.70474744,
        "meta_eccentricity": 0.00013694,
        "meta_inclination": 55.3802,
        "meta_ra_of_asc_node": 106.2504,
        "meta_arg_of_pericenter": 290.3791,
        "meta_mean_anomaly": 69.576,
        "meta_ephemeris_type": 0,
        "meta_classification_type": "U",
        "meta_norad_cat_id": 41862,
        "meta_element_set_no": 999,
        "meta_rev_at_epoch": 5646,
        "meta_bstar": 0,
        "meta_mean_motion_dot": 4e-08,
        "meta_mean_motion_ddot": 0,
        "tle_line1": "1 41862U 16069D   25346.57910574  .00000004  00000+0  00000+0 0  9993",
        "tle_line2": "2 41862  55.3802 106.2504 0001369 290.3791  69.5760  1.70474744 56466"
      },
      "geometry": {
        "type": "Point",
        "coordinates": [
          112.53923112923147,
          9.129151782313581
        ]
      }
    },
    {
      "type": "Feature",
      "properties": {
        "norad_id": 43055,
        "name": "GSAT0215 (GALILEO 19)",
        "group": "galileo",
        "lat": 50.57591436374083,
        "lon": -75.49207921552845,
        "alt_km": 23215.55692507109,
        "timestamp": "2025-12-14T22:38:41.021074+00:00",
        "meta_object_name": "GSAT0215 (GALILEO 19)",
        "meta_object_id": "2017-079A",
        "meta_epoch": "2025-12-11T21:30:24.060384",
        "meta_mean_motion": 1.704739,
        "meta_eccentricity": 0.00012658,
        "meta_inclination": 55.1303,
        "meta_ra_of_asc_node": 226.661,
        "meta_arg_of_pericenter": 350.6161,
        "meta_mean_anomaly": 9.46,
        "meta_ephemeris_type": 0,
        "meta_classification_type": "U",
        "meta_norad_cat_id": 43055,
        "meta_element_set_no": 999,
        "meta_rev_at_epoch": 4979,
        "meta_bstar": 0,
        "meta_mean_motion_dot": 1.3e-07,
        "meta_mean_motion_ddot": 0,
        "tle_line1": "1 43055U 17079A   25345.89611181  .00000013  00000+0  00000+0 0  9997",
        "tle_line2": "2 43055  55.1303 226.6610 0001265 350.6161   9.4600  1.70473900 49794"
      },
      "geometry": {
        "type": "Point",
        "coordinates": [
          -75.49207921552845,
          50.57591436374083
        ]
      }
    },
    {
      "type": "Feature",
      "properties": {
        "norad_id": 43056,
        "name": "GSAT0216 (GALILEO 20)",
        "group": "galileo",
        "lat": -51.08443694848542,
        "lon": 106.2197675482913,
        "alt_km": 23226.09800235685,
        "timestamp": "2025-12-14T22:38:41.021089+00:00",
        "meta_object_name": "GSAT0216 (GALILEO 20)",
        "meta_object_id": "2017-079B",
        "meta_epoch": "2025-12-13T08:39:13.176288",
        "meta_mean_motion": 1.70474029,
        "meta_eccentricity": 0.00023036,
        "meta_inclination": 55.1302,
        "meta_ra_of_asc_node": 226.6206,
        "meta_arg_of_pericenter": 326.735,
        "meta_mean_anomaly": 33.3311,
        "meta_ephemeris_type": 0,
        "meta_classification_type": "U",
        "meta_norad_cat_id": 43056,
        "meta_element_set_no": 999,
        "meta_rev_at_epoch": 4983,
        "meta_bstar": 0,
        "meta_mean_motion_dot": 2.3e-07,
        "meta_mean_motion_ddot": 0,
        "tle_line1": "1 43056U 17079B   25347.36056917  .00000023  00000+0  00000+0 0  9993",
        "tle_line2": "2 43056  55.1302 226.6206 0002303 326.7350  33.3311  1.70474029 49836"
      },
      "geometry": {
        "type": "Point",
        "coordinates": [
          106.2197675482913,
          -51.08443694848542
        ]
      }
    },
    {
      "type": "Feature",
      "properties": {
        "norad_id": 43057,
        "name": "GSAT0217 (GALILEO 21)",
        "group": "galileo",
        "lat": 47.46731121065506,
        "lon": -2.8281514647205963,
        "alt_km": 23221.842184041427,
        "timestamp": "2025-12-14T22:38:41.021100+00:00",
        "meta_object_name": "GSAT0217 (GALILEO 21)",
        "meta_object_id": "2017-079C",
        "meta_epoch": "2025-12-13T13:57:02.142720",
        "meta_mean_motion": 1.70474015,
        "meta_eccentricity": 0.00027963,
        "meta_inclination": 55.1281,
        "meta_ra_of_asc_node": 226.6125,
        "meta_arg_of_pericenter": 346.0332,
        "meta_mean_anomaly": 14.0404,
        "meta_ephemeris_type": 0,
        "meta_classification_type": "U",
        "meta_norad_cat_id": 43057,
        "meta_element_set_no": 999,
        "meta_rev_at_epoch": 4982,
        "meta_bstar": 0,
        "meta_mean_motion_dot": 2.5e-07,
        "meta_mean_motion_ddot": 0,
        "tle_line1": "1 43057U 17079C   25347.58127480  .00000025  00000+0  00000+0 0  9994",
        "tle_line2": "2 43057  55.1281 226.6125 0002796 346.0332  14.0404  1.70474015 49827"
      },
      "geometry": {
        "type": "Point",
        "coordinates": [
          -2.8281514647205963,
          47.46731121065506
        ]
      }
    },
    {
      "type": "Feature",
      "properties": {
        "norad_id": 43058,
        "name": "GSAT0218 (GALILEO 22)",
        "group": "galileo",
        "lat": -15.500494243435863,
        "lon": -144.5595692782467,
        "alt_km": 23217.47349250558,
        "timestamp": "2025-12-14T22:38:41.021112+00:00",
        "meta_object_name": "GSAT0218 (GALILEO 22)",
        "meta_object_id": "2017-079D",
        "meta_epoch": "2025-12-12T15:04:31.769472",
        "meta_mean_motion": 1.70474063,
        "meta_eccentricity": 0.00028411,
        "meta_inclination": 55.1287,
        "meta_ra_of_asc_node": 226.6365,
        "meta_arg_of_pericenter": 306.3289,
        "meta_mean_anomaly": 53.7237,
        "meta_ephemeris_type": 0,
        "meta_classification_type": "U",
        "meta_norad_cat_id": 43058,
        "meta_element_set_no": 999,
        "meta_rev_at_epoch": 4983,
        "meta_bstar": 0,
        "meta_mean_motion_dot": 1.7e-07,
        "meta_mean_motion_ddot": 0,
        "tle_line1": "1 43058U 17079D   25346.62814548  .00000017  00000+0  00000+0 0  9998",
        "tle_line2": "2 43058  55.1287 226.6365 0002841 306.3289  53.7237  1.70474063 49839"
      },
      "geometry": {
        "type": "Point",
        "coordinates": [
          -144.5595692782467,
          -15.500494243435863
        ]
      }
    }
  ]
}